[{"OBJECT_NAME":"SL-14 R/B","OBJECT_ID":"1986-006B","EPOCH":"2026-04-23T06:34:12.582336","MEAN_MOTION":14.86887319,"ECCENTRICITY":0.00777559,"INCLINATION":82.5292,"RA_OF_ASC_NODE":217.7778,"ARG_OF_PERICENTER":124.3303,"MEAN_ANOMALY":236.5304,"EPHEMERIS_TYPE":0,"CLASSIFICATION_TYPE":"U","NORAD_CAT_ID":16496,"ELEMENT_SET_NO":999,"REV_AT_EPOCH":15583,"BSTAR":5.5343763e-5,"MEAN_MOTION_DOT":5.5e-6,"MEAN_MOTION_DDOT":0},{"OBJECT_NAME":"COSMOS 1743","OBJECT_ID":"1986-034A","EPOCH":"2026-04-23T03:28:06.546144","MEAN_MOTION":15.62390736,"ECCENTRICITY":0.00075258,"INCLINATION":82.5324,"RA_OF_ASC_NODE":27.0396,"ARG_OF_PERICENTER":109.4121,"MEAN_ANOMALY":250.7951,"EPHEMERIS_TYPE":0,"CLASSIFICATION_TYPE":"U","NORAD_CAT_ID":16719,"ELEMENT_SET_NO":999,"REV_AT_EPOCH":18718,"BSTAR":0.00039945041,"MEAN_MOTION_DOT":0.00035526,"MEAN_MOTION_DDOT":0},{"OBJECT_NAME":"SL-14 R/B","OBJECT_ID":"1986-046B","EPOCH":"2026-04-23T06:15:50.007744","MEAN_MOTION":14.85631814,"ECCENTRICITY":0.0024681,"INCLINATION":82.4842,"RA_OF_ASC_NODE":38.0674,"ARG_OF_PERICENTER":81.2502,"MEAN_ANOMALY":279.1508,"EPHEMERIS_TYPE":0,"CLASSIFICATION_TYPE":"U","NORAD_CAT_ID":16792,"ELEMENT_SET_NO":999,"REV_AT_EPOCH":13302,"BSTAR":3.744743e-5,"MEAN_MOTION_DOT":3.51e-6,"MEAN_MOTION_DDOT":0},{"OBJECT_NAME":"SL-14 R/B","OBJECT_ID":"1986-055B","EPOCH":"2026-04-22T21:53:53.259072","MEAN_MOTION":14.85680052,"ECCENTRICITY":0.0018774,"INCLINATION":82.5182,"RA_OF_ASC_NODE":85.0926,"ARG_OF_PERICENTER":180.9964,"MEAN_ANOMALY":209.1623,"EPHEMERIS_TYPE":0,"CLASSIFICATION_TYPE":"U","NORAD_CAT_ID":16882,"ELEMENT_SET_NO":999,"REV_AT_EPOCH":12593,"BSTAR":3.4695e-5,"MEAN_MOTION_DOT":3.26e-6,"MEAN_MOTION_DDOT":0},{"OBJECT_NAME":"AJISAI (EGS)","OBJECT_ID":"1986-061A","EPOCH":"2026-04-23T05:08:34.084032","MEAN_MOTION":12.44515922,"ECCENTRICITY":0.00114203,"INCLINATION":50.0103,"RA_OF_ASC_NODE":316.4376,"ARG_OF_PERICENTER":41.2501,"MEAN_ANOMALY":67.295,"EPHEMERIS_TYPE":0,"CLASSIFICATION_TYPE":"U","NORAD_CAT_ID":16908,"ELEMENT_SET_NO":999,"REV_AT_EPOCH":47354,"BSTAR":9.4774734e-5,"MEAN_MOTION_DOT":-8.4e-7,"MEAN_MOTION_DDOT":0},{"OBJECT_NAME":"SL-14 R/B","OBJECT_ID":"1987-024B","EPOCH":"2026-04-23T06:40:36.035904","MEAN_MOTION":14.86172784,"ECCENTRICITY":0.00197314,"INCLINATION":82.5295,"RA_OF_ASC_NODE":50.8505,"ARG_OF_PERICENTER":111.2158,"MEAN_ANOMALY":249.1169,"EPHEMERIS_TYPE":0,"CLASSIFICATION_TYPE":"U","NORAD_CAT_ID":17567,"ELEMENT_SET_NO":999,"REV_AT_EPOCH":9475,"BSTAR":3.6245907e-5,"MEAN_MOTION_DOT":3.44e-6,"MEAN_MOTION_DDOT":0},{"OBJECT_NAME":"COSMOS 1833","OBJECT_ID":"1987-027A","EPOCH":"2026-04-23T00:47:57.344640","MEAN_MOTION":14.13034843,"ECCENTRICITY":0.00224329,"INCLINATION":70.9164,"RA_OF_ASC_NODE":232.8064,"ARG_OF_PERICENTER":146.0629,"MEAN_ANOMALY":214.1933,"EPHEMERIS_TYPE":0,"CLASSIFICATION_TYPE":"U","NORAD_CAT_ID":17589,"ELEMENT_SET_NO":999,"REV_AT_EPOCH":1658,"BSTAR":-9.7032539e-5,"MEAN_MOTION_DOT":-2.3e-6,"MEAN_MOTION_DDOT":0},{"OBJECT_NAME":"SL-16 R/B","OBJECT_ID":"1987-027B","EPOCH":"2026-04-23T05:32:40.992864","MEAN_MOTION":14.17169758,"ECCENTRICITY":0.00034988,"INCLINATION":71.0029,"RA_OF_ASC_NODE":182.635,"ARG_OF_PERICENTER":31.9871,"MEAN_ANOMALY":328.1465,"EPHEMERIS_TYPE":0,"CLASSIFICATION_TYPE":"U","NORAD_CAT_ID":17590,"ELEMENT_SET_NO":999,"REV_AT_EPOCH":2165,"BSTAR":0.00012909921,"MEAN_MOTION_DOT":2.12e-6,"MEAN_MOTION_DDOT":0},{"OBJECT_NAME":"SL-14 R/B","OBJECT_ID":"1987-038B","EPOCH":"2026-04-22T21:24:12.479040","MEAN_MOTION":14.85407668,"ECCENTRICITY":0.0019743,"INCLINATION":82.5,"RA_OF_ASC_NODE":255.1539,"ARG_OF_PERICENTER":22.8559,"MEAN_ANOMALY":337.3531,"EPHEMERIS_TYPE":0,"CLASSIFICATION_TYPE":"U","NORAD_CAT_ID":17912,"ELEMENT_SET_NO":999,"REV_AT_EPOCH":8579,"BSTAR":3.361e-5,"MEAN_MOTION_DOT":3.15e-6,"MEAN_MOTION_DDOT":0},{"OBJECT_NAME":"COSMOS 1844","OBJECT_ID":"1987-041A","EPOCH":"2026-04-22T22:48:17.216064","MEAN_MOTION":14.14561954,"ECCENTRICITY":0.0032745,"INCLINATION":70.8984,"RA_OF_ASC_NODE":300.8198,"ARG_OF_PERICENTER":312.9793,"MEAN_ANOMALY":46.8584,"EPHEMERIS_TYPE":0,"CLASSIFICATION_TYPE":"U","NORAD_CAT_ID":17973,"ELEMENT_SET_NO":999,"REV_AT_EPOCH":984,"BSTAR":-0.00013059,"MEAN_MOTION_DOT":-3.01e-6,"MEAN_MOTION_DDOT":0},{"OBJECT_NAME":"SL-14 R/B","OBJECT_ID":"1987-055B","EPOCH":"2026-04-22T23:53:43.549152","MEAN_MOTION":14.85666671,"ECCENTRICITY":0.00195411,"INCLINATION":82.4969,"RA_OF_ASC_NODE":307.2681,"ARG_OF_PERICENTER":224.1322,"MEAN_ANOMALY":135.8336,"EPHEMERIS_TYPE":0,"CLASSIFICATION_TYPE":"U","NORAD_CAT_ID":18153,"ELEMENT_SET_NO":999,"REV_AT_EPOCH":7651,"BSTAR":3.0328224e-5,"MEAN_MOTION_DOT":2.88e-6,"MEAN_MOTION_DDOT":0},{"OBJECT_NAME":"COSMOS 1867","OBJECT_ID":"1987-060A","EPOCH":"2026-04-22T22:37:52.690080","MEAN_MOTION":14.31509431,"ECCENTRICITY":0.0015349,"INCLINATION":65.0105,"RA_OF_ASC_NODE":182.7722,"ARG_OF_PERICENTER":280.8996,"MEAN_ANOMALY":79.0361,"EPHEMERIS_TYPE":0,"CLASSIFICATION_TYPE":"U","NORAD_CAT_ID":18187,"ELEMENT_SET_NO":999,"REV_AT_EPOCH":2627,"BSTAR":1.4652e-5,"MEAN_MOTION_DOT":-6.1e-7,"MEAN_MOTION_DDOT":0},{"OBJECT_NAME":"SL-14 R/B","OBJECT_ID":"1988-001B","EPOCH":"2026-04-23T06:19:22.968192","MEAN_MOTION":14.85568643,"ECCENTRICITY":0.00196598,"INCLINATION":82.5128,"RA_OF_ASC_NODE":153.4466,"ARG_OF_PERICENTER":91.1806,"MEAN_ANOMALY":269.1663,"EPHEMERIS_TYPE":0,"CLASSIFICATION_TYPE":"U","NORAD_CAT_ID":18749,"ELEMENT_SET_NO":999,"REV_AT_EPOCH":4864,"BSTAR":2.7723905e-5,"MEAN_MOTION_DOT":2.65e-6,"MEAN_MOTION_DDOT":0},{"OBJECT_NAME":"COSMOS 1933","OBJECT_ID":"1988-020A","EPOCH":"2026-04-23T06:41:52.062720","MEAN_MOTION":15.18371486,"ECCENTRICITY":0.00051061,"INCLINATION":82.5151,"RA_OF_ASC_NODE":206.7885,"ARG_OF_PERICENTER":60.0279,"MEAN_ANOMALY":300.1462,"EPHEMERIS_TYPE":0,"CLASSIFICATION_TYPE":"U","NORAD_CAT_ID":18958,"ELEMENT_SET_NO":999,"REV_AT_EPOCH":5699,"BSTAR":0.00014176813,"MEAN_MOTION_DOT":2.944e-5,"MEAN_MOTION_DDOT":0},{"OBJECT_NAME":"SL-3 R/B","OBJECT_ID":"1988-032B","EPOCH":"2026-04-23T05:31:24.652416","MEAN_MOTION":15.20361518,"ECCENTRICITY":0.0027654,"INCLINATION":97.5241,"RA_OF_ASC_NODE":96.3567,"ARG_OF_PERICENTER":79.6254,"MEAN_ANOMALY":280.8096,"EPHEMERIS_TYPE":0,"CLASSIFICATION_TYPE":"U","NORAD_CAT_ID":19046,"ELEMENT_SET_NO":999,"REV_AT_EPOCH":5887,"BSTAR":0.00017876117,"MEAN_MOTION_DOT":3.858e-5,"MEAN_MOTION_DDOT":0},{"OBJECT_NAME":"SL-16 R/B","OBJECT_ID":"1988-039B","EPOCH":"2026-04-23T00:27:53.556768","MEAN_MOTION":14.19622798,"ECCENTRICITY":0.00240889,"INCLINATION":71.0154,"RA_OF_ASC_NODE":334.8146,"ARG_OF_PERICENTER":271.6866,"MEAN_ANOMALY":88.15,"EPHEMERIS_TYPE":0,"CLASSIFICATION_TYPE":"U","NORAD_CAT_ID":19120,"ELEMENT_SET_NO":999,"REV_AT_EPOCH":96467,"BSTAR":5.1067463e-5,"MEAN_MOTION_DOT":6.0e-7,"MEAN_MOTION_DDOT":0},{"OBJECT_NAME":"COSMOS 1953","OBJECT_ID":"1988-050A","EPOCH":"2026-04-23T01:35:01.225824","MEAN_MOTION":15.29175179,"ECCENTRICITY":0.00097576,"INCLINATION":82.5052,"RA_OF_ASC_NODE":113.5819,"ARG_OF_PERICENTER":337.3629,"MEAN_ANOMALY":22.7179,"EPHEMERIS_TYPE":0,"CLASSIFICATION_TYPE":"U","NORAD_CAT_ID":19210,"ELEMENT_SET_NO":999,"REV_AT_EPOCH":4456,"BSTAR":0.00021903251,"MEAN_MOTION_DOT":6.24e-5,"MEAN_MOTION_DDOT":0}]
