SL-14 R/B               
1 16496U 86006B   26113.27375674  .00000550  00000+0  55344-4 0  9994
2 16496  82.5292 217.7778 0077755 124.3303 236.5304 14.86887319155832
COSMOS 1743             
1 16719U 86034A   26113.14452021  .00035526  00000+0  39945-3 0  9990
2 16719  82.5324  27.0396 0007525 109.4121 250.7951 15.62390736187180
SL-14 R/B               
1 16792U 86046B   26113.26099546  .00000351  00000+0  37447-4 0  9990
2 16792  82.4842  38.0674 0024681  81.2502 279.1508 14.85631814133024
SL-14 R/B               
1 16882U 86055B   26112.91242198  .00000326  00000+0  34695-4 0  9998
2 16882  82.5182  85.0926 0018774 180.9964 209.1623 14.85680052125939
AJISAI (EGS)            
1 16908U 86061A   26113.21428338 -.00000084  00000+0  94775-4 0  9997
2 16908  50.0103 316.4376 0011420  41.2501  67.2950 12.44515922473543
SL-14 R/B               
1 17567U 87024B   26113.27819486  .00000344  00000+0  36246-4 0  9990
2 17567  82.5295  50.8505 0019731 111.2158 249.1169 14.86172784 94757
COSMOS 1833             
1 17589U 87027A   26113.03330260 -.00000230  00000+0 -97033-4 0  9996
2 17589  70.9164 232.8064 0022432 146.0629 214.1933 14.13034843 16589
SL-16 R/B               
1 17590U 87027B   26113.23103001  .00000212  00000+0  12910-3 0  9999
2 17590  71.0029 182.6350 0003498  31.9871 328.1465 14.17169758 21653
SL-14 R/B               
1 17912U 87038B   26112.89181110  .00000315  00000+0  33610-4 0  9992
2 17912  82.5000 255.1539 0019743  22.8559 337.3531 14.85407668 85795
COSMOS 1844             
1 17973U 87041A   26112.95019926 -.00000301  00000+0 -13059-3 0  9996
2 17973  70.8984 300.8198 0032745 312.9793  46.8584 14.14561954  9845
SL-14 R/B               
1 18153U 87055B   26112.99564293  .00000288  00000+0  30328-4 0  9999
2 18153  82.4969 307.2681 0019541 224.1322 135.8336 14.85666671 76519
COSMOS 1867             
1 18187U 87060A   26112.94297095 -.00000061  00000+0  14652-4 0  9992
2 18187  65.0105 182.7722 0015349 280.8996  79.0361 14.31509431 26271
SL-14 R/B               
1 18749U 88001B   26113.26346028  .00000265  00000+0  27724-4 0  9998
2 18749  82.5128 153.4466 0019659  91.1806 269.1663 14.85568643 48646
COSMOS 1933             
1 18958U 88020A   26113.27907480  .00002944  00000+0  14177-3 0  9990
2 18958  82.5151 206.7885 0005106  60.0279 300.1462 15.18371486 56996
SL-3 R/B                
1 19046U 88032B   26113.23014644  .00003858  00000+0  17876-3 0  9993
2 19046  97.5241  96.3567 0027654  79.6254 280.8096 15.20361518 58876
SL-16 R/B               
1 19120U 88039B   26113.01936987  .00000060  00000+0  51067-4 0  9995
2 19120  71.0154 334.8146 0024088 271.6866  88.1500 14.19622798964673
COSMOS 1953             
1 19210U 88050A   26113.06598641  .00006240  00000+0  21903-3 0  9995
2 19210  82.5052 113.5819 0009757 337.3629  22.7179 15.29175179 44560
